STARLINK-30996          
1 59023U 24038A   26068.27030958 -.00001195  00000+0 -33911-4 0  9990
2 59023  43.0041  29.4218 0000498 228.2370 131.8439 15.27572837116064
TRANSPORTER-14 OBJECT AC
1 64554U 25135AC  26068.82113864  .00024574  00000+0  93234-3 0  9990
2 64554  97.4518 185.7428 0001008 268.0523  92.0600 15.26845403 39827
